STARLINK-4218           
1 53025U 22076AR  26068.45846469  .00002068  00000+0  14796-3 0  9995
2 53025  53.2165  85.1588 0001384  75.6263 284.4883 15.08843262202953
LEMUR-2-STELLA          
1 60533U 24149BT  26068.72657350  .00013685  00000+0  85776-3 0  9992
2 60533  97.6764 150.9122 0001299  95.1117 265.0260 15.09464064 85488
